[{"OBJECT_NAME":"SKYKRAFT-1A","OBJECT_ID":"2023-001AX","EPOCH":"2026-03-09T17:03:19.828224","MEAN_MOTION":15.28083228,"ECCENTRICITY":0.00112767,"INCLINATION":97.3349,"RA_OF_ASC_NODE":127.629,"ARG_OF_PERICENTER":121.5092,"MEAN_ANOMALY":238.7251,"EPHEMERIS_TYPE":0,"CLASSIFICATION_TYPE":"U","NORAD_CAT_ID":55054,"ELEMENT_SET_NO":999,"REV_AT_EPOCH":17652,"BSTAR":0.0003006872,"MEAN_MOTION_DOT":8.177e-5,"MEAN_MOTION_DDOT":0},{"OBJECT_NAME":"STARLINK-36105","OBJECT_ID":"2025-281C","EPOCH":"2026-03-09T03:58:20.583264","MEAN_MOTION":15.27596539,"ECCENTRICITY":0.000189,"INCLINATION":43.0051,"RA_OF_ASC_NODE":346.585,"ARG_OF_PERICENTER":259.7852,"MEAN_ANOMALY":100.2787,"EPHEMERIS_TYPE":0,"CLASSIFICATION_TYPE":"U","NORAD_CAT_ID":66850,"ELEMENT_SET_NO":999,"REV_AT_EPOCH":1610,"BSTAR":0.0011061971,"MEAN_MOTION_DOT":0.00030319,"MEAN_MOTION_DDOT":0}]
