SKYKRAFT-1A             
1 55054U 23001AX  26068.71064616  .00008177  00000+0  30069-3 0  9991
2 55054  97.3349 127.6290 0011277 121.5092 238.7251 15.28083228176529
STARLINK-36105          
1 66850U 25281C   26068.16551601  .00030319  00000+0  11062-2 0  9997
2 66850  43.0051 346.5850 0001890 259.7852 100.2787 15.27596539 16102
